ORBCOMM FM24            
1 25478U 98053D   24194.93950077  .00001709  00000+0  63185-3 0  9993
2 25478  45.0094  75.1766 0001554 348.7531  11.3282 14.35931733348649
ORBCOMM FM25            
1 25479U 98053E   24194.97626405  .00001697  00000+0  62806-3 0  9998
2 25479  45.0087  73.2518 0004052 353.3673   6.7120 14.35913679348942
ORBCOMM FM26            
1 25480U 98053F   24194.86902203  .00001443  00000+0  54782-3 0  9994
2 25480  45.0082  68.1539 0006143  10.1907 349.9064 14.35320770348860
ORBCOMM FM27            
1 25481U 98053G   24194.96493157  .00001799  00000+0  66305-3 0  9997
2 25481  45.0067  73.5671 0000646  69.9148 290.1769 14.35904895348878
ORBCOMM FM28            
1 25482U 98053H   24194.86305384  .00001601  00000+0  59057-3 0  9999
2 25482  45.0076  12.3089 0003244  49.5811 310.5319 14.36319335349702
ORBCOMM FM30            
1 25980U 99065A   24194.89455161  .00001029  00000+0  40377-3 0  9997
2 25980  45.0313 253.6265 0004158 123.8810 236.2433 14.35457324285660
ORBCOMM FM31            
1 25981U 99065B   24194.86026789  .00001056  00000+0  41306-3 0  9998
2 25981  45.0224 247.4365 0002546 178.1905 181.8952 14.35449960286187
ORBCOMM FM32            
1 25982U 99065C   24194.88593370  .00001000  00000+0  40130-3 0  9999
2 25982  45.0157 261.5700 0004772 159.6461 200.4577 14.34454677285840
