<?xml version="1.0" encoding="UTF-8"?>
<ndm xmlns:xsi="http://www.w3.org/2001/XMLSchema-instance" xsi:noNamespaceSchemaLocation="https://sanaregistry.org/r/ndmxml_unqualified/ndmxml-2.0.0-master-2.0.xsd">
<omm id="CCSDS_OMM_VERS" version="2.0">
<header><CREATION_DATE/><ORIGINATOR/></header><body><segment><metadata><OBJECT_NAME>ORBCOMM FM24</OBJECT_NAME><OBJECT_ID>1998-053D</OBJECT_ID><CENTER_NAME>EARTH</CENTER_NAME><REF_FRAME>TEME</REF_FRAME><TIME_SYSTEM>UTC</TIME_SYSTEM><MEAN_ELEMENT_THEORY>SGP4</MEAN_ELEMENT_THEORY></metadata><data><meanElements><EPOCH>2024-07-12T22:32:52.866528</EPOCH><MEAN_MOTION>14.35931733</MEAN_MOTION><ECCENTRICITY>.0001554</ECCENTRICITY><INCLINATION>45.0094</INCLINATION><RA_OF_ASC_NODE>75.1766</RA_OF_ASC_NODE><ARG_OF_PERICENTER>348.7531</ARG_OF_PERICENTER><MEAN_ANOMALY>11.3282</MEAN_ANOMALY></meanElements><tleParameters><EPHEMERIS_TYPE>0</EPHEMERIS_TYPE><CLASSIFICATION_TYPE>U</CLASSIFICATION_TYPE><NORAD_CAT_ID>25478</NORAD_CAT_ID><ELEMENT_SET_NO>999</ELEMENT_SET_NO><REV_AT_EPOCH>34864</REV_AT_EPOCH><BSTAR>.63185E-3</BSTAR><MEAN_MOTION_DOT>.1709E-4</MEAN_MOTION_DOT><MEAN_MOTION_DDOT>0</MEAN_MOTION_DDOT></tleParameters></data></segment></body></omm>
<omm id="CCSDS_OMM_VERS" version="2.0">
<header><CREATION_DATE/><ORIGINATOR/></header><body><segment><metadata><OBJECT_NAME>ORBCOMM FM25</OBJECT_NAME><OBJECT_ID>1998-053E</OBJECT_ID><CENTER_NAME>EARTH</CENTER_NAME><REF_FRAME>TEME</REF_FRAME><TIME_SYSTEM>UTC</TIME_SYSTEM><MEAN_ELEMENT_THEORY>SGP4</MEAN_ELEMENT_THEORY></metadata><data><meanElements><EPOCH>2024-07-12T23:25:49.213920</EPOCH><MEAN_MOTION>14.35913679</MEAN_MOTION><ECCENTRICITY>.0004052</ECCENTRICITY><INCLINATION>45.0087</INCLINATION><RA_OF_ASC_NODE>73.2518</RA_OF_ASC_NODE><ARG_OF_PERICENTER>353.3673</ARG_OF_PERICENTER><MEAN_ANOMALY>6.7120</MEAN_ANOMALY></meanElements><tleParameters><EPHEMERIS_TYPE>0</EPHEMERIS_TYPE><CLASSIFICATION_TYPE>U</CLASSIFICATION_TYPE><NORAD_CAT_ID>25479</NORAD_CAT_ID><ELEMENT_SET_NO>999</ELEMENT_SET_NO><REV_AT_EPOCH>34894</REV_AT_EPOCH><BSTAR>.62806E-3</BSTAR><MEAN_MOTION_DOT>.1697E-4</MEAN_MOTION_DOT><MEAN_MOTION_DDOT>0</MEAN_MOTION_DDOT></tleParameters></data></segment></body></omm>
<omm id="CCSDS_OMM_VERS" version="2.0">
<header><CREATION_DATE/><ORIGINATOR/></header><body><segment><metadata><OBJECT_NAME>ORBCOMM FM26</OBJECT_NAME><OBJECT_ID>1998-053F</OBJECT_ID><CENTER_NAME>EARTH</CENTER_NAME><REF_FRAME>TEME</REF_FRAME><TIME_SYSTEM>UTC</TIME_SYSTEM><MEAN_ELEMENT_THEORY>SGP4</MEAN_ELEMENT_THEORY></metadata><data><meanElements><EPOCH>2024-07-12T20:51:23.503392</EPOCH><MEAN_MOTION>14.35320770</MEAN_MOTION><ECCENTRICITY>.0006143</ECCENTRICITY><INCLINATION>45.0082</INCLINATION><RA_OF_ASC_NODE>68.1539</RA_OF_ASC_NODE><ARG_OF_PERICENTER>10.1907</ARG_OF_PERICENTER><MEAN_ANOMALY>349.9064</MEAN_ANOMALY></meanElements><tleParameters><EPHEMERIS_TYPE>0</EPHEMERIS_TYPE><CLASSIFICATION_TYPE>U</CLASSIFICATION_TYPE><NORAD_CAT_ID>25480</NORAD_CAT_ID><ELEMENT_SET_NO>999</ELEMENT_SET_NO><REV_AT_EPOCH>34886</REV_AT_EPOCH><BSTAR>.54782E-3</BSTAR><MEAN_MOTION_DOT>.1443E-4</MEAN_MOTION_DOT><MEAN_MOTION_DDOT>0</MEAN_MOTION_DDOT></tleParameters></data></segment></body></omm>
<omm id="CCSDS_OMM_VERS" version="2.0">
<header><CREATION_DATE/><ORIGINATOR/></header><body><segment><metadata><OBJECT_NAME>ORBCOMM FM27</OBJECT_NAME><OBJECT_ID>1998-053G</OBJECT_ID><CENTER_NAME>EARTH</CENTER_NAME><REF_FRAME>TEME</REF_FRAME><TIME_SYSTEM>UTC</TIME_SYSTEM><MEAN_ELEMENT_THEORY>SGP4</MEAN_ELEMENT_THEORY></metadata><data><meanElements><EPOCH>2024-07-12T23:09:30.087648</EPOCH><MEAN_MOTION>14.35904895</MEAN_MOTION><ECCENTRICITY>.0000646</ECCENTRICITY><INCLINATION>45.0067</INCLINATION><RA_OF_ASC_NODE>73.5671</RA_OF_ASC_NODE><ARG_OF_PERICENTER>69.9148</ARG_OF_PERICENTER><MEAN_ANOMALY>290.1769</MEAN_ANOMALY></meanElements><tleParameters><EPHEMERIS_TYPE>0</EPHEMERIS_TYPE><CLASSIFICATION_TYPE>U</CLASSIFICATION_TYPE><NORAD_CAT_ID>25481</NORAD_CAT_ID><ELEMENT_SET_NO>999</ELEMENT_SET_NO><REV_AT_EPOCH>34887</REV_AT_EPOCH><BSTAR>.66305E-3</BSTAR><MEAN_MOTION_DOT>.1799E-4</MEAN_MOTION_DOT><MEAN_MOTION_DDOT>0</MEAN_MOTION_DDOT></tleParameters></data></segment></body></omm>
<omm id="CCSDS_OMM_VERS" version="2.0">
<header><CREATION_DATE/><ORIGINATOR/></header><body><segment><metadata><OBJECT_NAME>ORBCOMM FM28</OBJECT_NAME><OBJECT_ID>1998-053H</OBJECT_ID><CENTER_NAME>EARTH</CENTER_NAME><REF_FRAME>TEME</REF_FRAME><TIME_SYSTEM>UTC</TIME_SYSTEM><MEAN_ELEMENT_THEORY>SGP4</MEAN_ELEMENT_THEORY></metadata><data><meanElements><EPOCH>2024-07-12T20:42:47.851776</EPOCH><MEAN_MOTION>14.36319335</MEAN_MOTION><ECCENTRICITY>.0003244</ECCENTRICITY><INCLINATION>45.0076</INCLINATION><RA_OF_ASC_NODE>12.3089</RA_OF_ASC_NODE><ARG_OF_PERICENTER>49.5811</ARG_OF_PERICENTER><MEAN_ANOMALY>310.5319</MEAN_ANOMALY></meanElements><tleParameters><EPHEMERIS_TYPE>0</EPHEMERIS_TYPE><CLASSIFICATION_TYPE>U</CLASSIFICATION_TYPE><NORAD_CAT_ID>25482</NORAD_CAT_ID><ELEMENT_SET_NO>999</ELEMENT_SET_NO><REV_AT_EPOCH>34970</REV_AT_EPOCH><BSTAR>.59057E-3</BSTAR><MEAN_MOTION_DOT>.1601E-4</MEAN_MOTION_DOT><MEAN_MOTION_DDOT>0</MEAN_MOTION_DDOT></tleParameters></data></segment></body></omm>
<omm id="CCSDS_OMM_VERS" version="2.0">
<header><CREATION_DATE/><ORIGINATOR/></header><body><segment><metadata><OBJECT_NAME>ORBCOMM FM30</OBJECT_NAME><OBJECT_ID>1999-065A</OBJECT_ID><CENTER_NAME>EARTH</CENTER_NAME><REF_FRAME>TEME</REF_FRAME><TIME_SYSTEM>UTC</TIME_SYSTEM><MEAN_ELEMENT_THEORY>SGP4</MEAN_ELEMENT_THEORY></metadata><data><meanElements><EPOCH>2024-07-12T21:28:09.259104</EPOCH><MEAN_MOTION>14.35457324</MEAN_MOTION><ECCENTRICITY>.0004158</ECCENTRICITY><INCLINATION>45.0313</INCLINATION><RA_OF_ASC_NODE>253.6265</RA_OF_ASC_NODE><ARG_OF_PERICENTER>123.8810</ARG_OF_PERICENTER><MEAN_ANOMALY>236.2433</MEAN_ANOMALY></meanElements><tleParameters><EPHEMERIS_TYPE>0</EPHEMERIS_TYPE><CLASSIFICATION_TYPE>U</CLASSIFICATION_TYPE><NORAD_CAT_ID>25980</NORAD_CAT_ID><ELEMENT_SET_NO>999</ELEMENT_SET_NO><REV_AT_EPOCH>28566</REV_AT_EPOCH><BSTAR>.40377E-3</BSTAR><MEAN_MOTION_DOT>.1029E-4</MEAN_MOTION_DOT><MEAN_MOTION_DDOT>0</MEAN_MOTION_DDOT></tleParameters></data></segment></body></omm>
<omm id="CCSDS_OMM_VERS" version="2.0">
<header><CREATION_DATE/><ORIGINATOR/></header><body><segment><metadata><OBJECT_NAME>ORBCOMM FM31</OBJECT_NAME><OBJECT_ID>1999-065B</OBJECT_ID><CENTER_NAME>EARTH</CENTER_NAME><REF_FRAME>TEME</REF_FRAME><TIME_SYSTEM>UTC</TIME_SYSTEM><MEAN_ELEMENT_THEORY>SGP4</MEAN_ELEMENT_THEORY></metadata><data><meanElements><EPOCH>2024-07-12T20:38:47.145696</EPOCH><MEAN_MOTION>14.35449960</MEAN_MOTION><ECCENTRICITY>.0002546</ECCENTRICITY><INCLINATION>45.0224</INCLINATION><RA_OF_ASC_NODE>247.4365</RA_OF_ASC_NODE><ARG_OF_PERICENTER>178.1905</ARG_OF_PERICENTER><MEAN_ANOMALY>181.8952</MEAN_ANOMALY></meanElements><tleParameters><EPHEMERIS_TYPE>0</EPHEMERIS_TYPE><CLASSIFICATION_TYPE>U</CLASSIFICATION_TYPE><NORAD_CAT_ID>25981</NORAD_CAT_ID><ELEMENT_SET_NO>999</ELEMENT_SET_NO><REV_AT_EPOCH>28618</REV_AT_EPOCH><BSTAR>.41306E-3</BSTAR><MEAN_MOTION_DOT>.1056E-4</MEAN_MOTION_DOT><MEAN_MOTION_DDOT>0</MEAN_MOTION_DDOT></tleParameters></data></segment></body></omm>
<omm id="CCSDS_OMM_VERS" version="2.0">
<header><CREATION_DATE/><ORIGINATOR/></header><body><segment><metadata><OBJECT_NAME>ORBCOMM FM32</OBJECT_NAME><OBJECT_ID>1999-065C</OBJECT_ID><CENTER_NAME>EARTH</CENTER_NAME><REF_FRAME>TEME</REF_FRAME><TIME_SYSTEM>UTC</TIME_SYSTEM><MEAN_ELEMENT_THEORY>SGP4</MEAN_ELEMENT_THEORY></metadata><data><meanElements><EPOCH>2024-07-12T21:15:44.671680</EPOCH><MEAN_MOTION>14.34454677</MEAN_MOTION><ECCENTRICITY>.0004772</ECCENTRICITY><INCLINATION>45.0157</INCLINATION><RA_OF_ASC_NODE>261.5700</RA_OF_ASC_NODE><ARG_OF_PERICENTER>159.6461</ARG_OF_PERICENTER><MEAN_ANOMALY>200.4577</MEAN_ANOMALY></meanElements><tleParameters><EPHEMERIS_TYPE>0</EPHEMERIS_TYPE><CLASSIFICATION_TYPE>U</CLASSIFICATION_TYPE><NORAD_CAT_ID>25982</NORAD_CAT_ID><ELEMENT_SET_NO>999</ELEMENT_SET_NO><REV_AT_EPOCH>28584</REV_AT_EPOCH><BSTAR>.4013E-3</BSTAR><MEAN_MOTION_DOT>.1E-4</MEAN_MOTION_DOT><MEAN_MOTION_DDOT>0</MEAN_MOTION_DDOT></tleParameters></data></segment></body></omm>

</ndm>
